{
  "norad_id": 52489,
  "name": "STARLINK-3923",
  "history": [
    {
      "epoch": "2026-05-03T09:37:59.441952Z",
      "apogee_km": 540.54539937749,
      "perigee_km": 538.9353325993306,
      "latitude_deg": 1.8054948037146474e-05,
      "longitude_deg": 167.7078422222058,
      "height_km": 540.5554969268629,
      "semi_major_axis_km": 6917.87736598841,
      "eccentricity": 0.00011637,
      "inclination_deg": 53.2164,
      "raan_deg": 173.5111,
      "arg_perigee_deg": 84.2435,
      "mean_anomaly_deg": 275.869,
      "mean_motion_rev_day": 15.08840989
    },
    {
      "epoch": "2026-05-04T09:28:46.532064Z",
      "apogee_km": 540.5324741606655,
      "perigee_km": 538.9608693481168,
      "latitude_deg": -4.1049621706575076e-05,
      "longitude_deg": 164.57184884397822,
      "height_km": 540.558395964035,
      "semi_major_axis_km": 6917.883671754391,
      "eccentricity": 0.00011359,
      "inclination_deg": 53.2162,
      "raan_deg": 169.0507,
      "arg_perigee_deg": 83.8505,
      "mean_anomaly_deg": 276.2616,
      "mean_motion_rev_day": 15.08838926
    },
    {
      "epoch": "2026-05-05T14:05:40.872768Z",
      "apogee_km": 540.4572866480439,
      "perigee_km": 538.9063116732732,
      "latitude_deg": 1.4000060257029775e-05,
      "longitude_deg": 88.8168855707027,
      "height_km": 540.4511378499343,
      "semi_major_axis_km": 6917.818799160658,
      "eccentricity": 0.0001121,
      "inclination_deg": 53.2162,
      "raan_deg": 163.6973,
      "arg_perigee_deg": 80.6046,
      "mean_anomaly_deg": 279.5073,
      "mean_motion_rev_day": 15.0886015
    },
    {
      "epoch": "2026-05-06T13:56:30.249888Z",
      "apogee_km": 540.4746184969472,
      "perigee_km": 539.0619822346125,
      "latitude_deg": -1.2432171047653235e-05,
      "longitude_deg": 85.67196059914696,
      "height_km": 540.5369707445658,
      "semi_major_axis_km": 6917.905300365779,
      "eccentricity": 0.0001021,
      "inclination_deg": 53.2157,
      "raan_deg": 159.2375,
      "arg_perigee_deg": 79.6135,
      "mean_anomaly_deg": 280.4972,
      "mean_motion_rev_day": 15.0883185
    },
    {
      "epoch": "2026-05-07T18:33:26.898336Z",
      "apogee_km": 540.4142172288739,
      "perigee_km": 539.0832160169957,
      "latitude_deg": 2.4842890694892794e-05,
      "longitude_deg": 9.908042339002053,
      "height_km": 540.5735917407889,
      "semi_major_axis_km": 6917.8857166229345,
      "eccentricity": 9.62e-05,
      "inclination_deg": 53.2154,
      "raan_deg": 153.8848,
      "arg_perigee_deg": 83.8615,
      "mean_anomaly_deg": 276.2487,
      "mean_motion_rev_day": 15.08838257
    },
    {
      "epoch": "2026-05-08T18:24:14.817024Z",
      "apogee_km": 540.4333688747665,
      "perigee_km": 539.1341833530132,
      "latitude_deg": -4.027913371226729e-05,
      "longitude_deg": 6.7683828976047185,
      "height_km": 540.6413410804495,
      "semi_major_axis_km": 6917.92077611389,
      "eccentricity": 9.39e-05,
      "inclination_deg": 53.2152,
      "raan_deg": 149.4242,
      "arg_perigee_deg": 86.6038,
      "mean_anomaly_deg": 273.5061,
      "mean_motion_rev_day": 15.08826787
    }
  ]
}